CCSDS_OMM_VERS = 2.0
CREATION_DATE  = 
ORIGINATOR     = 

OBJECT_NAME    = SL-16 R/B
OBJECT_ID      = 1993-016B
CENTER_NAME    = EARTH
REF_FRAME      = TEME
TIME_SYSTEM    = UTC
MEAN_ELEMENT_THEORY = SGP/SGP4

EPOCH          = 2025-12-31T22:18:33.774912
MEAN_MOTION    = 14.15295619
ECCENTRICITY   = .00080574
INCLINATION    = 71.0087
RA_OF_ASC_NODE = 357.4981
ARG_OF_PERICENTER = 58.8730
MEAN_ANOMALY   = 301.3182

EPHEMERIS_TYPE = 0
CLASSIFICATION_TYPE = U
NORAD_CAT_ID   = 22566
ELEMENT_SET_NO = 999
REV_AT_EPOCH   = 69258
BSTAR          = .36537619E-4
MEAN_MOTION_DOT = .24E-6
MEAN_MOTION_DDOT = 0

CCSDS_OMM_VERS = 2.0
CREATION_DATE  = 
ORIGINATOR     = 

OBJECT_NAME    = COSMOS 2242
OBJECT_ID      = 1993-024A
CENTER_NAME    = EARTH
REF_FRAME      = TEME
TIME_SYSTEM    = UTC
MEAN_ELEMENT_THEORY = SGP/SGP4

EPOCH          = 2025-12-31T21:32:03.442848
MEAN_MOTION    = 14.96200041
ECCENTRICITY   = .00165911
INCLINATION    = 82.5191
RA_OF_ASC_NODE = 331.5323
ARG_OF_PERICENTER = 167.0410
MEAN_ANOMALY   = 193.1242

EPHEMERIS_TYPE = 0
CLASSIFICATION_TYPE = U
NORAD_CAT_ID   = 22626
ELEMENT_SET_NO = 999
REV_AT_EPOCH   = 77025
BSTAR          = .30548376E-3
MEAN_MOTION_DOT = .3477E-4
MEAN_MOTION_DDOT = 0

CCSDS_OMM_VERS = 2.0
CREATION_DATE  = 
ORIGINATOR     = 

OBJECT_NAME    = SL-16 R/B
OBJECT_ID      = 1993-059B
CENTER_NAME    = EARTH
REF_FRAME      = TEME
TIME_SYSTEM    = UTC
MEAN_ELEMENT_THEORY = SGP/SGP4

EPOCH          = 2025-12-31T20:38:09.089088
MEAN_MOTION    = 14.17219327
ECCENTRICITY   = .00190336
INCLINATION    = 70.9899
RA_OF_ASC_NODE = 154.1670
ARG_OF_PERICENTER = 308.6348
MEAN_ANOMALY   = 51.3072

EPHEMERIS_TYPE = 0
CLASSIFICATION_TYPE = U
NORAD_CAT_ID   = 22803
ELEMENT_SET_NO = 999
REV_AT_EPOCH   = 66992
BSTAR          = .41528703E-4
MEAN_MOTION_DOT = .36E-6
MEAN_MOTION_DDOT = 0

CCSDS_OMM_VERS = 2.0
CREATION_DATE  = 
ORIGINATOR     = 

OBJECT_NAME    = ARIANE 40 R/B
OBJECT_ID      = 1993-061H
CENTER_NAME    = EARTH
REF_FRAME      = TEME
TIME_SYSTEM    = UTC
MEAN_ELEMENT_THEORY = SGP/SGP4

EPOCH          = 2025-12-31T16:23:06.820512
MEAN_MOTION    = 14.32816187
ECCENTRICITY   = .00117231
INCLINATION    = 98.5049
RA_OF_ASC_NODE = 70.8657
ARG_OF_PERICENTER = 123.2242
MEAN_ANOMALY   = 237.0068

EPHEMERIS_TYPE = 0
CLASSIFICATION_TYPE = U
NORAD_CAT_ID   = 22830
ELEMENT_SET_NO = 999
REV_AT_EPOCH   = 68436
BSTAR          = .21428089E-3
MEAN_MOTION_DOT = .542E-5
MEAN_MOTION_DDOT = 0

CCSDS_OMM_VERS = 2.0
CREATION_DATE  = 
ORIGINATOR     = 

OBJECT_NAME    = COSMOS 2278
OBJECT_ID      = 1994-023A
CENTER_NAME    = EARTH
REF_FRAME      = TEME
TIME_SYSTEM    = UTC
MEAN_ELEMENT_THEORY = SGP/SGP4

EPOCH          = 2025-12-31T21:57:00.589824
MEAN_MOTION    = 14.14352661
ECCENTRICITY   = .00075153
INCLINATION    = 71.0540
RA_OF_ASC_NODE = 316.8929
ARG_OF_PERICENTER = 144.7327
MEAN_ANOMALY   = 215.4294

EPHEMERIS_TYPE = 0
CLASSIFICATION_TYPE = U
NORAD_CAT_ID   = 23087
ELEMENT_SET_NO = 999
REV_AT_EPOCH   = 63522
BSTAR          = .23035268E-3
MEAN_MOTION_DOT = .394E-5
MEAN_MOTION_DDOT = 0

CCSDS_OMM_VERS = 2.0
CREATION_DATE  = 
ORIGINATOR     = 

OBJECT_NAME    = SL-16 R/B
OBJECT_ID      = 1994-023B
CENTER_NAME    = EARTH
REF_FRAME      = TEME
TIME_SYSTEM    = UTC
MEAN_ELEMENT_THEORY = SGP/SGP4

EPOCH          = 2025-12-31T22:06:28.101312
MEAN_MOTION    = 14.14998603
ECCENTRICITY   = .00024068
INCLINATION    = 70.9975
RA_OF_ASC_NODE = 213.2052
ARG_OF_PERICENTER = 356.9438
MEAN_ANOMALY   = 3.1669

EPHEMERIS_TYPE = 0
CLASSIFICATION_TYPE = U
NORAD_CAT_ID   = 23088
ELEMENT_SET_NO = 999
REV_AT_EPOCH   = 63650
BSTAR          = .64736536E-4
MEAN_MOTION_DOT = .78E-6
MEAN_MOTION_DDOT = 0

CCSDS_OMM_VERS = 2.0
CREATION_DATE  = 
ORIGINATOR     = 

OBJECT_NAME    = SL-16 R/B
OBJECT_ID      = 1994-074B
CENTER_NAME    = EARTH
REF_FRAME      = TEME
TIME_SYSTEM    = UTC
MEAN_ELEMENT_THEORY = SGP/SGP4

EPOCH          = 2025-12-31T14:58:40.086048
MEAN_MOTION    = 14.79314635
ECCENTRICITY   = .00080435
INCLINATION    = 97.7184
RA_OF_ASC_NODE = 34.1763
ARG_OF_PERICENTER = 84.5780
MEAN_ANOMALY   = 28.6087

EPHEMERIS_TYPE = 0
CLASSIFICATION_TYPE = U
NORAD_CAT_ID   = 23343
ELEMENT_SET_NO = 999
REV_AT_EPOCH   = 67718
BSTAR          = .13292527E-3
MEAN_MOTION_DOT = .94E-5
MEAN_MOTION_DDOT = 0

CCSDS_OMM_VERS = 2.0
CREATION_DATE  = 
ORIGINATOR     = 

OBJECT_NAME    = SL-16 R/B
OBJECT_ID      = 1994-077B
CENTER_NAME    = EARTH
REF_FRAME      = TEME
TIME_SYSTEM    = UTC
MEAN_ELEMENT_THEORY = SGP/SGP4

EPOCH          = 2025-12-31T18:54:32.184864
MEAN_MOTION    = 14.15550357
ECCENTRICITY   = .00050266
INCLINATION    = 70.9827
RA_OF_ASC_NODE = 135.3421
ARG_OF_PERICENTER = 268.6201
MEAN_ANOMALY   = 91.4346

EPHEMERIS_TYPE = 0
CLASSIFICATION_TYPE = U
NORAD_CAT_ID   = 23405
ELEMENT_SET_NO = 999
REV_AT_EPOCH   = 60662
BSTAR          = -.76148564E-4
MEAN_MOTION_DOT = -.197E-5
MEAN_MOTION_DDOT = 0

CCSDS_OMM_VERS = 2.0
CREATION_DATE  = 
ORIGINATOR     = 

OBJECT_NAME    = ARIANE 40+ R/B
OBJECT_ID      = 1995-021B
CENTER_NAME    = EARTH
REF_FRAME      = TEME
TIME_SYSTEM    = UTC
MEAN_ELEMENT_THEORY = SGP/SGP4

EPOCH          = 2025-12-31T18:56:07.572192
MEAN_MOTION    = 14.39712432
ECCENTRICITY   = .00064857
INCLINATION    = 98.4626
RA_OF_ASC_NODE = 73.1459
ARG_OF_PERICENTER = 354.6501
MEAN_ANOMALY   = 116.6465

EPHEMERIS_TYPE = 0
CLASSIFICATION_TYPE = U
NORAD_CAT_ID   = 23561
ELEMENT_SET_NO = 999
REV_AT_EPOCH   = 60947
BSTAR          = .2115879E-3
MEAN_MOTION_DOT = .619E-5
MEAN_MOTION_DDOT = 0

CCSDS_OMM_VERS = 2.0
CREATION_DATE  = 
ORIGINATOR     = 

OBJECT_NAME    = SL-16 R/B
OBJECT_ID      = 1995-058B
CENTER_NAME    = EARTH
REF_FRAME      = TEME
TIME_SYSTEM    = UTC
MEAN_ELEMENT_THEORY = SGP/SGP4

EPOCH          = 2025-12-31T22:23:19.281120
MEAN_MOTION    = 14.15482763
ECCENTRICITY   = .00143307
INCLINATION    = 71.0221
RA_OF_ASC_NODE = 322.5079
ARG_OF_PERICENTER = 229.4597
MEAN_ANOMALY   = 130.5279

EPHEMERIS_TYPE = 0
CLASSIFICATION_TYPE = U
NORAD_CAT_ID   = 23705
ELEMENT_SET_NO = 999
REV_AT_EPOCH   = 55826
BSTAR          = .13939531E-3
MEAN_MOTION_DOT = .225E-5
MEAN_MOTION_DDOT = 0

CCSDS_OMM_VERS = 2.0
CREATION_DATE  = 
ORIGINATOR     = 

OBJECT_NAME    = SL-16 R/B
OBJECT_ID      = 1996-051B
CENTER_NAME    = EARTH
REF_FRAME      = TEME
TIME_SYSTEM    = UTC
MEAN_ELEMENT_THEORY = SGP/SGP4

EPOCH          = 2025-12-31T21:27:11.131776
MEAN_MOTION    = 14.12398757
ECCENTRICITY   = .00194204
INCLINATION    = 70.7598
RA_OF_ASC_NODE = 318.7398
ARG_OF_PERICENTER = 237.8383
MEAN_ANOMALY   = 122.0853

EPHEMERIS_TYPE = 0
CLASSIFICATION_TYPE = U
NORAD_CAT_ID   = 24298
ELEMENT_SET_NO = 999
REV_AT_EPOCH   = 51207
BSTAR          = .46426194E-4
MEAN_MOTION_DOT = .36E-6
MEAN_MOTION_DDOT = 0

CCSDS_OMM_VERS = 2.0
CREATION_DATE  = 
ORIGINATOR     = 

OBJECT_NAME    = ORBVIEW 2 (SEASTAR)
OBJECT_ID      = 1997-037A
CENTER_NAME    = EARTH
REF_FRAME      = TEME
TIME_SYSTEM    = UTC
MEAN_ELEMENT_THEORY = SGP/SGP4

EPOCH          = 2025-12-31T21:00:17.013024
MEAN_MOTION    = 14.35433725
ECCENTRICITY   = .00012811
INCLINATION    = 98.8470
RA_OF_ASC_NODE = 163.4330
ARG_OF_PERICENTER = 251.3758
MEAN_ANOMALY   = 108.7287

EPHEMERIS_TYPE = 0
CLASSIFICATION_TYPE = U
NORAD_CAT_ID   = 24883
ELEMENT_SET_NO = 999
REV_AT_EPOCH   = 49874
BSTAR          = .22652737E-3
MEAN_MOTION_DOT = .604E-5
MEAN_MOTION_DDOT = 0

