SL-16 R/B               
1 22566U 93016B   25365.92955758  .00000024  00000+0  36538-4 0  9995
2 22566  71.0087 357.4981 0008057  58.8730 301.3182 14.15295619692585
COSMOS 2242             
1 22626U 93024A   25365.89726207  .00003477  00000+0  30548-3 0  9991
2 22626  82.5191 331.5323 0016591 167.0410 193.1242 14.96200041770257
SL-16 R/B               
1 22803U 93059B   25365.85982742  .00000036  00000+0  41529-4 0  9990
2 22803  70.9899 154.1670 0019033 308.6348  51.3072 14.17219327669928
ARIANE 40 R/B           
1 22830U 93061H   25365.68271783  .00000542  00000+0  21428-3 0  9997
2 22830  98.5049  70.8657 0011723 123.2242 237.0068 14.32816187684369
COSMOS 2278             
1 23087U 94023A   25365.91459016  .00000394  00000+0  23035-3 0  9995
2 23087  71.0540 316.8929 0007515 144.7327 215.4294 14.14352661635221
SL-16 R/B               
1 23088U 94023B   25365.92115858  .00000078  00000+0  64737-4 0  9994
2 23088  70.9975 213.2052 0002406 356.9438   3.1669 14.14998603636505
SL-16 R/B               
1 23343U 94074B   25365.62407507  .00000940  00000+0  13293-3 0  9994
2 23343  97.7184  34.1763 0008043  84.5780  28.6087 14.79314635677187
SL-16 R/B               
1 23405U 94077B   25365.78787251 -.00000197  00000+0 -76149-4 0  9996
2 23405  70.9827 135.3421 0005026 268.6201  91.4346 14.15550357606629
ARIANE 40+ R/B          
1 23561U 95021B   25365.78897653  .00000619  00000+0  21159-3 0  9994
2 23561  98.4626  73.1459 0006485 354.6501 116.6465 14.39712432609471
SL-16 R/B               
1 23705U 95058B   25365.93286205  .00000225  00000+0  13940-3 0  9998
2 23705  71.0221 322.5079 0014330 229.4597 130.5279 14.15482763558263
SL-16 R/B               
1 24298U 96051B   25365.89387884  .00000036  00000+0  46426-4 0  9996
2 24298  70.7598 318.7398 0019420 237.8383 122.0853 14.12398757512075
ORBVIEW 2 (SEASTAR)     
1 24883U 97037A   25365.87519691  .00000604  00000+0  22653-3 0  9998
2 24883  98.8470 163.4330 0001281 251.3758 108.7287 14.35433725498748
